
# Worst residual: 67.66 km
# MJD 58620.000000 (2019 May 17  0:00)
1967-040A = NORAD 02765 = UU0E325 = UV18B9C = Vela 7
1 02765U 67040A   19137.49919926  .00000000  00000-0  00000-0 0  3913
2 02765 020.1500 039.8292 4893066 190.4727 347.1598 00.21366917    01

# Worst residual: 45.62 km
# MJD 58621.000000 (2019 May 18  0:00)
1967-040A = NORAD 02765 = UU0E325 = UV18B9C = Vela 7
1 02765U 67040A   19138.49919926  .00000000  00000-0  00000-0 0  3914
2 02765 020.1485 039.7767 4868924 190.8453 064.2438 00.21448710    06

# Worst residual: 3.68 km
# MJD 58622.000000 (2019 May 19  0:00)
1967-040A = NORAD 02765 = UU0E325 = UV18B9C = Vela 7
1 02765U 67040A   19139.49919926  .00000000  00000-0  00000-0 0  3915
2 02765 020.1624 039.7740 4861927 190.6744 141.9774 00.21508830    05

# Worst residual: 6.18 km
# MJD 58623.000000 (2019 May 20  0:00)
1967-040A = NORAD 02765 = UU0E325 = UV18B9C = Vela 7
1 02765U 67040A   19140.49919926  .00000000  00000-0  00000-0 0  3917
2 02765 020.1708 039.7745 4863916 190.7374 219.2471 00.21514971    09

# Worst residual: 3.71 km
# MJD 58624.000000 (2019 May 21  0:00)
1967-040A = NORAD 02765 = UU0E325 = UV18B9C = Vela 7
1 02765U 67040A   19141.49919926  .00000000  00000-0  00000-0 0  3918
2 02765 020.1841 039.7813 4861903 190.8090 296.5180 00.21526207    03

# Worst residual: 29.60 km
# MJD 58625.000000 (2019 May 22  0:00)
1967-040A = NORAD 02765 = UU0E325 = UV18B9C = Vela 7
1 02765U 67040A   19142.49919926  .00000000  00000-0  00000-0 0  3919
2 02765 020.1862 039.8089 4877380 190.8375 013.9031 00.21436655    07

# Worst residual: 24.25 km
# MJD 58626.000000 (2019 May 23  0:00)
1967-040A = NORAD 02765 = UU0E325 = UV18B9C = Vela 7
1 02765U 67040A   19143.49919926  .00000000  00000-0  00000-0 0  3910
2 02765 020.1992 039.7862 4862070 190.8949 091.3095 00.21485796    06

# Worst residual: 7.95 km
# MJD 58627.000000 (2019 May 24  0:00)
1967-040A = NORAD 02765 = UU0E325 = UV18B9C = Vela 7
1 02765U 67040A   19144.49919926  .00000000  00000-0  00000-0 0  3911
2 02765 020.2093 039.7902 4857323 190.7455 169.0721 00.21514753    05

# Worst residual: 4.85 km
# MJD 58628.000000 (2019 May 25  0:00)
1967-040A = NORAD 02765 = UU0E325 = UV18B9C = Vela 7
1 02765U 67040A   19145.49919926  .00000000  00000-0  00000-0 0  3912
2 02765 020.2197 039.7911 4852157 190.6893 246.5947 00.21498280    02

# Worst residual: 16.05 km
# MJD 58629.000000 (2019 May 26  0:00)
1967-040A = NORAD 02765 = UU0E325 = UV18B9C = Vela 7
1 02765U 67040A   19146.49919926  .00000000  00000-0  00000-0 0  3913
2 02765 020.2329 039.8088 4856354 190.6206 324.0410 00.21466741    00

# Worst residual: 9.07 km
# MJD 58630.000000 (2019 May 27  0:00)
1967-040A = NORAD 02765 = UU0E325 = UV18B9C = Vela 7
1 02765U 67040A   19147.49919926  .00000000  00000-0  00000-0 0  3914
2 02765 020.2339 039.8005 4854563 190.8176 041.2401 00.21482455    06

# Worst residual: 9.02 km
# MJD 58631.000000 (2019 May 28  0:00)
1967-040A = NORAD 02765 = UU0E325 = UV18B9C = Vela 7
1 02765U 67040A   19148.49919926  .00000000  00000-0  00000-0 0  3915
2 02765 020.2619 039.7653 4859781 190.8233 118.5495 00.21498877    02

# Worst residual: 6.99 km
# MJD 58632.000000 (2019 May 29  0:00)
1967-040A = NORAD 02765 = UU0E325 = UV18B9C = Vela 7
1 02765U 67040A   19149.49919926  .00000000  00000-0  00000-0 0  3916
2 02765 020.2940 039.7663 4875236 190.7926 195.9889 00.21533155    06

# Worst residual: 24.93 km
# MJD 58633.000000 (2019 May 30  0:00)
1967-040A = NORAD 02765 = UU0E325 = UV18B9C = Vela 7
1 02765U 67040A   19150.49919926  .00000000  00000-0  00000-0 0  3918
2 02765 020.3093 039.7742 4880688 190.6781 273.7463 00.21514587    00

# Worst residual: 62.53 km
# MJD 58634.000000 (2019 May 31  0:00)
1967-040A = NORAD 02765 = UU0E325 = UV18B9C = Vela 7
1 02765U 67040A   19151.49919926  .00000000  00000-0  00000-0 0  3919
2 02765 020.3164 039.8234 4910726 190.5848 351.3781 00.21384992    07

# Worst residual: 42.34 km
# MJD 58635.000000 (2019 Jun  1  0:00)
1967-040A = NORAD 02765 = UU0E325 = UV18B9C = Vela 7
1 02765U 67040A   19152.49919926  .00000000  00000-0  00000-0 0  3910
2 02765 020.3183 039.7715 4884630 190.8983 068.5938 00.21476398    01

# Worst residual: 12.28 km
# MJD 58636.000000 (2019 Jun  2  0:00)
1967-040A = NORAD 02765 = UU0E325 = UV18B9C = Vela 7
1 02765U 67040A   19153.49919926  .00000000  00000-0  00000-0 0  3911
2 02765 020.3524 039.7534 4867692 190.8735 146.2098 00.21494569    04

# Worst residual: 27.28 km
# MJD 58637.000000 (2019 Jun  3  0:00)
1967-040A = NORAD 02765 = UU0E325 = UV18B9C = Vela 7
1 02765U 67040A   19154.49919926  .00000000  00000-0  00000-0 0  3912
2 02765 020.4290 039.7952 4843499 191.0677 222.8881 00.21447466    01

# Worst residual: 13.64 km
# MJD 58638.000000 (2019 Jun  4  0:00)
1967-040A = NORAD 02765 = UU0E325 = UV18B9C = Vela 7
1 02765U 67040A   19155.49919926  .00000000  00000-0  00000-0 0  3913
2 02765 020.4788 039.8944 4831130 191.2677 299.4791 00.21504207    03

# Worst residual: 30.19 km
# MJD 58639.000000 (2019 Jun  5  0:00)
1967-040A = NORAD 02765 = UU0E325 = UV18B9C = Vela 7
1 02765U 67040A   19156.49919926  .00000000  00000-0  00000-0 0  3914
2 02765 020.4806 039.9276 4846197 191.3426 016.7640 00.21426289    01

# Worst residual: 21.34 km
# MJD 58640.000000 (2019 Jun  6  0:00)
1967-040A = NORAD 02765 = UU0E325 = UV18B9C = Vela 7
1 02765U 67040A   19157.49919926  .00000000  00000-0  00000-0 0  3915
2 02765 020.4932 039.9102 4832518 191.4079 094.0786 00.21463955    07

# Worst residual: 11.38 km
# MJD 58641.000000 (2019 Jun  7  0:00)
1967-040A = NORAD 02765 = UU0E325 = UV18B9C = Vela 7
1 02765U 67040A   19158.49919926  .00000000  00000-0  00000-0 0  3916
2 02765 020.5039 039.9125 4838790 191.1912 171.8706 00.21518834    05

# Worst residual: 5.90 km
# MJD 58642.000000 (2019 Jun  8  0:00)
1967-040A = NORAD 02765 = UU0E325 = UV18B9C = Vela 7
1 02765U 67040A   19159.49919926  .00000000  00000-0  00000-0 0  3917
2 02765 020.5161 039.9141 4843971 191.1334 249.4977 00.21522718    02

# Worst residual: 2.20 km
# MJD 58643.000000 (2019 Jun  9  0:00)
1967-040A = NORAD 02765 = UU0E325 = UV18B9C = Vela 7
1 02765U 67040A   19160.49919926  .00000000  00000-0  00000-0 0  3919
2 02765 020.5281 039.9186 4843660 191.0446 327.0002 00.21491705    05

# Worst residual: 3.20 km
# MJD 58644.000000 (2019 Jun 10  0:00)
1967-040A = NORAD 02765 = UU0E325 = UV18B9C = Vela 7
1 02765U 67040A   19161.49919926  .00000000  00000-0  00000-0 0  3910
2 02765 020.5321 039.9099 4839573 191.1104 044.3439 00.21519087    00

# Worst residual: 4.30 km
# MJD 58645.000000 (2019 Jun 11  0:00)
1967-040A = NORAD 02765 = UU0E325 = UV18B9C = Vela 7
1 02765U 67040A   19162.49919926  .00000000  00000-0  00000-0 0  3911
2 02765 020.5453 039.9047 4842460 191.1542 121.6574 00.21511081    09
